CCSDS_OMM_VERS = 2.0
CREATION_DATE  = 
ORIGINATOR     = 

OBJECT_NAME    = SL-4 R/B
OBJECT_ID      = 2014-021B
CENTER_NAME    = EARTH
REF_FRAME      = TEME
TIME_SYSTEM    = UTC
MEAN_ELEMENT_THEORY = SGP/SGP4

EPOCH          = 2026-02-01T17:02:01.121280
MEAN_MOTION    = 15.38045224
ECCENTRICITY   = .00990537
INCLINATION    = 51.6072
RA_OF_ASC_NODE = 152.6438
ARG_OF_PERICENTER = 331.8342
MEAN_ANOMALY   = 27.7304

EPHEMERIS_TYPE = 0
CLASSIFICATION_TYPE = U
NORAD_CAT_ID   = 39679
ELEMENT_SET_NO = 999
REV_AT_EPOCH   = 65073
BSTAR          = .24164759E-3
MEAN_MOTION_DOT = .10433E-3
MEAN_MOTION_DDOT = 0

CCSDS_OMM_VERS = 2.0
CREATION_DATE  = 
ORIGINATOR     = 

OBJECT_NAME    = ALOS-2
OBJECT_ID      = 2014-029A
CENTER_NAME    = EARTH
REF_FRAME      = TEME
TIME_SYSTEM    = UTC
MEAN_ELEMENT_THEORY = SGP/SGP4

EPOCH          = 2026-02-02T06:42:10.077984
MEAN_MOTION    = 14.79469504
ECCENTRICITY   = .00013907
INCLINATION    = 97.9228
RA_OF_ASC_NODE = 132.3859
ARG_OF_PERICENTER = 99.3645
MEAN_ANOMALY   = 260.7724

EPHEMERIS_TYPE = 0
CLASSIFICATION_TYPE = U
NORAD_CAT_ID   = 39766
ELEMENT_SET_NO = 999
REV_AT_EPOCH   = 63163
BSTAR          = -.39047882E-4
MEAN_MOTION_DOT = -.343E-5
MEAN_MOTION_DDOT = 0

CCSDS_OMM_VERS = 2.0
CREATION_DATE  = 
ORIGINATOR     = 

OBJECT_NAME    = YAOGAN-29
OBJECT_ID      = 2015-069A
CENTER_NAME    = EARTH
REF_FRAME      = TEME
TIME_SYSTEM    = UTC
MEAN_ELEMENT_THEORY = SGP/SGP4

EPOCH          = 2026-02-02T07:17:13.490304
MEAN_MOTION    = 14.82955268
ECCENTRICITY   = .00029026
INCLINATION    = 98.0179
RA_OF_ASC_NODE = 61.6330
ARG_OF_PERICENTER = 96.2173
MEAN_ANOMALY   = 263.9371

EPHEMERIS_TYPE = 0
CLASSIFICATION_TYPE = U
NORAD_CAT_ID   = 41038
ELEMENT_SET_NO = 999
REV_AT_EPOCH   = 55063
BSTAR          = .15047731E-3
MEAN_MOTION_DOT = .1167E-4
MEAN_MOTION_DDOT = 0

CCSDS_OMM_VERS = 2.0
CREATION_DATE  = 
ORIGINATOR     = 

OBJECT_NAME    = ASTRO-H (HITOMI)
OBJECT_ID      = 2016-012A
CENTER_NAME    = EARTH
REF_FRAME      = TEME
TIME_SYSTEM    = UTC
MEAN_ELEMENT_THEORY = SGP/SGP4

EPOCH          = 2026-02-02T04:47:53.689344
MEAN_MOTION    = 15.09738393
ECCENTRICITY   = .00099116
INCLINATION    = 30.9978
RA_OF_ASC_NODE = 225.5262
ARG_OF_PERICENTER = 335.8303
MEAN_ANOMALY   = 24.1869

EPHEMERIS_TYPE = 0
CLASSIFICATION_TYPE = U
NORAD_CAT_ID   = 41337
ELEMENT_SET_NO = 999
REV_AT_EPOCH   = 54686
BSTAR          = .17517634E-3
MEAN_MOTION_DOT = .2993E-4
MEAN_MOTION_DDOT = 0

CCSDS_OMM_VERS = 2.0
CREATION_DATE  = 
ORIGINATOR     = 

OBJECT_NAME    = HXMT (HUIYAN)
OBJECT_ID      = 2017-034A
CENTER_NAME    = EARTH
REF_FRAME      = TEME
TIME_SYSTEM    = UTC
MEAN_ELEMENT_THEORY = SGP/SGP4

EPOCH          = 2026-02-02T05:27:53.966016
MEAN_MOTION    = 15.16982879
ECCENTRICITY   = .00316877
INCLINATION    = 43.0125
RA_OF_ASC_NODE = 213.7556
ARG_OF_PERICENTER = 8.0413
MEAN_ANOMALY   = 352.0937

EPHEMERIS_TYPE = 0
CLASSIFICATION_TYPE = U
NORAD_CAT_ID   = 42758
ELEMENT_SET_NO = 999
REV_AT_EPOCH   = 47715
BSTAR          = .23867915E-3
MEAN_MOTION_DOT = .462E-4
MEAN_MOTION_DDOT = 0

CCSDS_OMM_VERS = 2.0
CREATION_DATE  = 
ORIGINATOR     = 

OBJECT_NAME    = CZ-2C R/B
OBJECT_ID      = 2018-054D
CENTER_NAME    = EARTH
REF_FRAME      = TEME
TIME_SYSTEM    = UTC
MEAN_ELEMENT_THEORY = SGP/SGP4

EPOCH          = 2026-02-01T19:23:26.848896
MEAN_MOTION    = 15.91659946
ECCENTRICITY   = .00136476
INCLINATION    = 35.1294
RA_OF_ASC_NODE = 190.8633
ARG_OF_PERICENTER = 314.2789
MEAN_ANOMALY   = 45.6829

EPHEMERIS_TYPE = 0
CLASSIFICATION_TYPE = U
NORAD_CAT_ID   = 43521
ELEMENT_SET_NO = 999
REV_AT_EPOCH   = 42314
BSTAR          = .73635011E-3
MEAN_MOTION_DOT = .253164E-2
MEAN_MOTION_DDOT = .24467575E-4

CCSDS_OMM_VERS = 2.0
CREATION_DATE  = 
ORIGINATOR     = 

OBJECT_NAME    = SAOCOM 1A
OBJECT_ID      = 2018-076A
CENTER_NAME    = EARTH
REF_FRAME      = TEME
TIME_SYSTEM    = UTC
MEAN_ELEMENT_THEORY = SGP/SGP4

EPOCH          = 2026-02-02T07:37:06.441024
MEAN_MOTION    = 14.82147295
ECCENTRICITY   = .00013715
INCLINATION    = 97.8859
RA_OF_ASC_NODE = 221.9921
ARG_OF_PERICENTER = 85.8504
MEAN_ANOMALY   = 274.2866

EPHEMERIS_TYPE = 0
CLASSIFICATION_TYPE = U
NORAD_CAT_ID   = 43641
ELEMENT_SET_NO = 999
REV_AT_EPOCH   = 39612
BSTAR          = -.4576003E-5
MEAN_MOTION_DOT = -.89E-6
MEAN_MOTION_DDOT = 0

CCSDS_OMM_VERS = 2.0
CREATION_DATE  = 
ORIGINATOR     = 

OBJECT_NAME    = H-2A R/B
OBJECT_ID      = 2018-084L
CENTER_NAME    = EARTH
REF_FRAME      = TEME
TIME_SYSTEM    = UTC
MEAN_ELEMENT_THEORY = SGP/SGP4

EPOCH          = 2026-02-02T03:19:40.194624
MEAN_MOTION    = 15.39748725
ECCENTRICITY   = .00262361
INCLINATION    = 98.8755
RA_OF_ASC_NODE = 242.9705
ARG_OF_PERICENTER = 145.2240
MEAN_ANOMALY   = 215.0723

EPHEMERIS_TYPE = 0
CLASSIFICATION_TYPE = U
NORAD_CAT_ID   = 43682
ELEMENT_SET_NO = 999
REV_AT_EPOCH   = 40030
BSTAR          = .44416039E-3
MEAN_MOTION_DOT = .17696E-3
MEAN_MOTION_DDOT = 0

CCSDS_OMM_VERS = 2.0
CREATION_DATE  = 
ORIGINATOR     = 

OBJECT_NAME    = SAOCOM 1B
OBJECT_ID      = 2020-059A
CENTER_NAME    = EARTH
REF_FRAME      = TEME
TIME_SYSTEM    = UTC
MEAN_ELEMENT_THEORY = SGP/SGP4

EPOCH          = 2026-02-02T06:44:54.937824
MEAN_MOTION    = 14.82156607
ECCENTRICITY   = .00013624
INCLINATION    = 97.8856
RA_OF_ASC_NODE = 221.0550
ARG_OF_PERICENTER = 86.6902
MEAN_ANOMALY   = 273.4467

EPHEMERIS_TYPE = 0
CLASSIFICATION_TYPE = U
NORAD_CAT_ID   = 46265
ELEMENT_SET_NO = 999
REV_AT_EPOCH   = 29350
BSTAR          = .11577619E-3
MEAN_MOTION_DOT = .87E-5
MEAN_MOTION_DDOT = 0

CCSDS_OMM_VERS = 2.0
CREATION_DATE  = 
ORIGINATOR     = 

OBJECT_NAME    = CSS (TIANHE)
OBJECT_ID      = 2021-035A
CENTER_NAME    = EARTH
REF_FRAME      = TEME
TIME_SYSTEM    = UTC
MEAN_ELEMENT_THEORY = SGP/SGP4

EPOCH          = 2026-02-01T17:30:34.226784
MEAN_MOTION    = 15.61502009
ECCENTRICITY   = .00087809
INCLINATION    = 41.4671
RA_OF_ASC_NODE = 66.6440
ARG_OF_PERICENTER = 58.4806
MEAN_ANOMALY   = 301.6890

EPHEMERIS_TYPE = 0
CLASSIFICATION_TYPE = U
NORAD_CAT_ID   = 48274
ELEMENT_SET_NO = 999
REV_AT_EPOCH   = 27199
BSTAR          = .32519537E-3
MEAN_MOTION_DOT = .28466E-3
MEAN_MOTION_DDOT = 0

CCSDS_OMM_VERS = 2.0
CREATION_DATE  = 
ORIGINATOR     = 

OBJECT_NAME    = COSMOS 2550
OBJECT_ID      = 2021-056A
CENTER_NAME    = EARTH
REF_FRAME      = TEME
TIME_SYSTEM    = UTC
MEAN_ELEMENT_THEORY = SGP/SGP4

EPOCH          = 2026-01-26T03:10:39.828288
MEAN_MOTION    = 15.33840202
ECCENTRICITY   = .00083094
INCLINATION    = 67.1441
RA_OF_ASC_NODE = 169.6578
ARG_OF_PERICENTER = 269.8947
MEAN_ANOMALY   = 90.1255

EPHEMERIS_TYPE = 0
CLASSIFICATION_TYPE = U
NORAD_CAT_ID   = 48865
ELEMENT_SET_NO = 999
REV_AT_EPOCH   = 25693
BSTAR          = .322698E-6
MEAN_MOTION_DOT = -.181E-5
MEAN_MOTION_DDOT = 0

CCSDS_OMM_VERS = 2.0
CREATION_DATE  = 
ORIGINATOR     = 

OBJECT_NAME    = CZ-2C R/B
OBJECT_ID      = 2022-058K
CENTER_NAME    = EARTH
REF_FRAME      = TEME
TIME_SYSTEM    = UTC
MEAN_ELEMENT_THEORY = SGP/SGP4

EPOCH          = 2026-02-02T06:01:25.936896
MEAN_MOTION    = 15.51738604
ECCENTRICITY   = .00424554
INCLINATION    = 50.1891
RA_OF_ASC_NODE = 140.2391
ARG_OF_PERICENTER = 50.7315
MEAN_ANOMALY   = 309.7409

EPHEMERIS_TYPE = 0
CLASSIFICATION_TYPE = U
NORAD_CAT_ID   = 52794
ELEMENT_SET_NO = 999
REV_AT_EPOCH   = 20462
BSTAR          = .41910353E-3
MEAN_MOTION_DOT = .26055E-3
MEAN_MOTION_DDOT = 0

