SL-4 R/B                
1 39679U 14021B   26032.70973520  .00010433  00000+0  24165-3 0  9999
2 39679  51.6072 152.6438 0099053 331.8342  27.7304 15.38045224650734
ALOS-2                  
1 39766U 14029A   26033.27928331 -.00000343  00000+0 -39048-4 0  9995
2 39766  97.9228 132.3859 0001390  99.3645 260.7724 14.79469504631636
YAOGAN-29               
1 41038U 15069A   26033.30362836  .00001167  00000+0  15048-3 0  9997
2 41038  98.0179  61.6330 0002902  96.2173 263.9371 14.82955268550632
ASTRO-H (HITOMI)        
1 41337U 16012A   26033.19992696  .00002993  00000+0  17518-3 0  9990
2 41337  30.9978 225.5262 0009911 335.8303  24.1869 15.09738393546862
HXMT (HUIYAN)           
1 42758U 17034A   26033.22770794  .00004620  00000+0  23868-3 0  9994
2 42758  43.0125 213.7556 0031687   8.0413 352.0937 15.16982879477152
CZ-2C R/B               
1 43521U 18054D   26032.80794964  .00253164  24468-4  73635-3 0  9999
2 43521  35.1294 190.8633 0013647 314.2789  45.6829 15.91659946423149
SAOCOM 1A               
1 43641U 18076A   26033.31743566 -.00000089  00000+0 -45760-5 0  9994
2 43641  97.8859 221.9921 0001371  85.8504 274.2866 14.82147295396123
H-2A R/B                
1 43682U 18084L   26033.13865966  .00017696  00000+0  44416-3 0  9992
2 43682  98.8755 242.9705 0026236 145.2240 215.0723 15.39748725400301
SAOCOM 1B               
1 46265U 20059A   26033.28119141  .00000870  00000+0  11578-3 0  9999
2 46265  97.8856 221.0550 0001362  86.6902 273.4467 14.82156607293508
CSS (TIANHE)            
1 48274U 21035A   26032.72956281  .00028466  00000+0  32520-3 0  9999
2 48274  41.4671  66.6440 0008780  58.4806 301.6890 15.61502009271994
COSMOS 2550             
1 48865U 21056A   26026.13240542 -.00000181  00000+0  32270-6 0  9992
2 48865  67.1441 169.6578 0008309 269.8947  90.1255 15.33840202256938
CZ-2C R/B               
1 52794U 22058K   26033.25099464  .00026055  00000+0  41910-3 0  9992
2 52794  50.1891 140.2391 0042455  50.7315 309.7409 15.51738604204620
